{
  "norad_id": 43252,
  "name": "IRIDIUM 140",
  "history": [
    {
      "epoch": "2026-03-28T21:38:23.404128",
      "apogee_km": 779.1716963190865,
      "perigee_km": 776.1583880791168,
      "latitude_deg": -42.31600271167812,
      "longitude_deg": 31.75933791999705,
      "semi_major_axis_km": 7155.802042199101,
      "eccentricity": 0.00021055,
      "inclination_deg": 86.398,
      "raan_deg": 324.0214,
      "arg_perigee_deg": 88.0518,
      "mean_anomaly_deg": 272.0919,
      "mean_motion_rev_day": 14.34218385
    },
    {
      "epoch": "2026-03-29T04:20:15.396000",
      "apogee_km": 779.1645855763709,
      "perigee_km": 776.1648734913506,
      "latitude_deg": 81.83158026416855,
      "longitude_deg": 58.550439999904484,
      "semi_major_axis_km": 7155.80172953386,
      "eccentricity": 0.0002096,
      "inclination_deg": 86.398,
      "raan_deg": 323.9048,
      "arg_perigee_deg": 88.1458,
      "mean_anomaly_deg": 271.9978,
      "mean_motion_rev_day": 14.34218479
    }
  ]
}